CCSDS_OMM_VERS = 2.0
CREATION_DATE  = 
ORIGINATOR     = 

OBJECT_NAME    = SL-3 R/B
OBJECT_ID      = 1988-032B
CENTER_NAME    = EARTH
REF_FRAME      = TEME
TIME_SYSTEM    = UTC
MEAN_ELEMENT_THEORY = SGP/SGP4

EPOCH          = 2026-03-23T22:51:16.409664
MEAN_MOTION    = 15.20063867
ECCENTRICITY   = .00258033
INCLINATION    = 97.5215
RA_OF_ASC_NODE = 66.1563
ARG_OF_PERICENTER = 180.0863
MEAN_ANOMALY   = 180.0372

EPHEMERIS_TYPE = 0
CLASSIFICATION_TYPE = U
NORAD_CAT_ID   = 19046
ELEMENT_SET_NO = 999
REV_AT_EPOCH   = 5427
BSTAR          = .25443302E-3
MEAN_MOTION_DOT = .5467E-4
MEAN_MOTION_DDOT = 0

CCSDS_OMM_VERS = 2.0
CREATION_DATE  = 
ORIGINATOR     = 

OBJECT_NAME    = SL-16 R/B
OBJECT_ID      = 1988-039B
CENTER_NAME    = EARTH
REF_FRAME      = TEME
TIME_SYSTEM    = UTC
MEAN_ELEMENT_THEORY = SGP/SGP4

EPOCH          = 2026-03-23T22:21:56.303424
MEAN_MOTION    = 14.19617797
ECCENTRICITY   = .00234438
INCLINATION    = 71.0158
RA_OF_ASC_NODE = 38.4305
ARG_OF_PERICENTER = 313.8372
MEAN_ANOMALY   = 46.0815

EPHEMERIS_TYPE = 0
CLASSIFICATION_TYPE = U
NORAD_CAT_ID   = 19120
ELEMENT_SET_NO = 999
REV_AT_EPOCH   = 96040
BSTAR          = .6163386E-5
MEAN_MOTION_DOT = -.35E-6
MEAN_MOTION_DDOT = 0

CCSDS_OMM_VERS = 2.0
CREATION_DATE  = 
ORIGINATOR     = 

OBJECT_NAME    = COSMOS 1953
OBJECT_ID      = 1988-050A
CENTER_NAME    = EARTH
REF_FRAME      = TEME
TIME_SYSTEM    = UTC
MEAN_ELEMENT_THEORY = SGP/SGP4

EPOCH          = 2026-03-23T10:30:12.610080
MEAN_MOTION    = 15.28741216
ECCENTRICITY   = .0012549
INCLINATION    = 82.5082
RA_OF_ASC_NODE = 144.4192
ARG_OF_PERICENTER = 79.6553
MEAN_ANOMALY   = 280.6101

EPHEMERIS_TYPE = 0
CLASSIFICATION_TYPE = U
NORAD_CAT_ID   = 19210
ELEMENT_SET_NO = 999
REV_AT_EPOCH   = 3988
BSTAR          = .30551235E-3
MEAN_MOTION_DOT = .8587E-4
MEAN_MOTION_DDOT = 0

CCSDS_OMM_VERS = 2.0
CREATION_DATE  = 
ORIGINATOR     = 

OBJECT_NAME    = SL-8 R/B
OBJECT_ID      = 1988-053B
CENTER_NAME    = EARTH
REF_FRAME      = TEME
TIME_SYSTEM    = UTC
MEAN_ELEMENT_THEORY = SGP/SGP4

EPOCH          = 2026-03-23T18:59:54.219264
MEAN_MOTION    = 14.38925154
ECCENTRICITY   = .00215252
INCLINATION    = 74.0451
RA_OF_ASC_NODE = 86.4697
ARG_OF_PERICENTER = 263.9200
MEAN_ANOMALY   = 269.0847

EPHEMERIS_TYPE = 0
CLASSIFICATION_TYPE = U
NORAD_CAT_ID   = 19257
ELEMENT_SET_NO = 999
REV_AT_EPOCH   = 97862
BSTAR          = .10898456E-3
MEAN_MOTION_DOT = .31E-5
MEAN_MOTION_DDOT = 0

CCSDS_OMM_VERS = 2.0
CREATION_DATE  = 
ORIGINATOR     = 

OBJECT_NAME    = COSMOS 1975
OBJECT_ID      = 1988-093A
CENTER_NAME    = EARTH
REF_FRAME      = TEME
TIME_SYSTEM    = UTC
MEAN_ELEMENT_THEORY = SGP/SGP4

EPOCH          = 2026-03-23T19:16:22.317312
MEAN_MOTION    = 15.28253912
ECCENTRICITY   = .0013237
INCLINATION    = 82.5166
RA_OF_ASC_NODE = 103.5126
ARG_OF_PERICENTER = 117.7140
MEAN_ANOMALY   = 242.5444

EPHEMERIS_TYPE = 0
CLASSIFICATION_TYPE = U
NORAD_CAT_ID   = 19573
ELEMENT_SET_NO = 999
REV_AT_EPOCH   = 2156
BSTAR          = .24806265E-3
MEAN_MOTION_DOT = .6877E-4
MEAN_MOTION_DDOT = 0

CCSDS_OMM_VERS = 2.0
CREATION_DATE  = 
ORIGINATOR     = 

OBJECT_NAME    = SL-14 R/B
OBJECT_ID      = 1988-093B
CENTER_NAME    = EARTH
REF_FRAME      = TEME
TIME_SYSTEM    = UTC
MEAN_ELEMENT_THEORY = SGP/SGP4

EPOCH          = 2026-03-23T22:36:52.676640
MEAN_MOTION    = 14.85673016
ECCENTRICITY   = .00205504
INCLINATION    = 82.5332
RA_OF_ASC_NODE = 28.6656
ARG_OF_PERICENTER = 355.5751
MEAN_ANOMALY   = 73.5033

EPHEMERIS_TYPE = 0
CLASSIFICATION_TYPE = U
NORAD_CAT_ID   = 19574
ELEMENT_SET_NO = 999
REV_AT_EPOCH   = 313
BSTAR          = .65183011E-4
MEAN_MOTION_DOT = .591E-5
MEAN_MOTION_DDOT = 0

CCSDS_OMM_VERS = 2.0
CREATION_DATE  = 
ORIGINATOR     = 

OBJECT_NAME    = SL-16 R/B
OBJECT_ID      = 1988-102B
CENTER_NAME    = EARTH
REF_FRAME      = TEME
TIME_SYSTEM    = UTC
MEAN_ELEMENT_THEORY = SGP/SGP4

EPOCH          = 2026-03-23T19:40:45.954912
MEAN_MOTION    = 14.16155049
ECCENTRICITY   = .00149178
INCLINATION    = 70.9982
RA_OF_ASC_NODE = 121.7664
ARG_OF_PERICENTER = 339.9057
MEAN_ANOMALY   = 20.1477

EPHEMERIS_TYPE = 0
CLASSIFICATION_TYPE = U
NORAD_CAT_ID   = 19650
ELEMENT_SET_NO = 999
REV_AT_EPOCH   = 92889
BSTAR          = -.93273163E-4
MEAN_MOTION_DOT = -.233E-5
MEAN_MOTION_DDOT = 0

CCSDS_OMM_VERS = 2.0
CREATION_DATE  = 
ORIGINATOR     = 

OBJECT_NAME    = INTERCOSMOS 24
OBJECT_ID      = 1989-080A
CENTER_NAME    = EARTH
REF_FRAME      = TEME
TIME_SYSTEM    = UTC
MEAN_ELEMENT_THEORY = SGP/SGP4

EPOCH          = 2026-03-23T18:46:40.872864
MEAN_MOTION    = 12.59576317
ECCENTRICITY   = .11867559
INCLINATION    = 82.6014
RA_OF_ASC_NODE = 95.2244
ARG_OF_PERICENTER = 260.0777
MEAN_ANOMALY   = 86.4628

EPHEMERIS_TYPE = 0
CLASSIFICATION_TYPE = U
NORAD_CAT_ID   = 20261
ELEMENT_SET_NO = 999
REV_AT_EPOCH   = 66857
BSTAR          = .15281991E-3
MEAN_MOTION_DOT = .515E-5
MEAN_MOTION_DDOT = 0

CCSDS_OMM_VERS = 2.0
CREATION_DATE  = 
ORIGINATOR     = 

OBJECT_NAME    = SL-14 R/B
OBJECT_ID      = 1989-080C
CENTER_NAME    = EARTH
REF_FRAME      = TEME
TIME_SYSTEM    = UTC
MEAN_ELEMENT_THEORY = SGP/SGP4

EPOCH          = 2026-03-23T11:29:59.141472
MEAN_MOTION    = 12.50507556
ECCENTRICITY   = .12308546
INCLINATION    = 82.5965
RA_OF_ASC_NODE = 164.3378
ARG_OF_PERICENTER = 153.2452
MEAN_ANOMALY   = 213.7959

EPHEMERIS_TYPE = 0
CLASSIFICATION_TYPE = U
NORAD_CAT_ID   = 20262
ELEMENT_SET_NO = 999
REV_AT_EPOCH   = 66187
BSTAR          = .12871915E-3
MEAN_MOTION_DOT = .453E-5
MEAN_MOTION_DDOT = 0

CCSDS_OMM_VERS = 2.0
CREATION_DATE  = 
ORIGINATOR     = 

OBJECT_NAME    = DELTA 1 R/B
OBJECT_ID      = 1989-089B
CENTER_NAME    = EARTH
REF_FRAME      = TEME
TIME_SYSTEM    = UTC
MEAN_ELEMENT_THEORY = SGP/SGP4

EPOCH          = 2026-03-23T13:17:36.982464
MEAN_MOTION    = 14.50674138
ECCENTRICITY   = .00706782
INCLINATION    = 97.0695
RA_OF_ASC_NODE = 287.7863
ARG_OF_PERICENTER = 79.0434
MEAN_ANOMALY   = 281.8705

EPHEMERIS_TYPE = 0
CLASSIFICATION_TYPE = U
NORAD_CAT_ID   = 20323
ELEMENT_SET_NO = 999
REV_AT_EPOCH   = 89774
BSTAR          = .87602413E-4
MEAN_MOTION_DOT = .32E-5
MEAN_MOTION_DDOT = 0

CCSDS_OMM_VERS = 2.0
CREATION_DATE  = 
ORIGINATOR     = 

OBJECT_NAME    = ARIANE 40 R/B
OBJECT_ID      = 1990-005H
CENTER_NAME    = EARTH
REF_FRAME      = TEME
TIME_SYSTEM    = UTC
MEAN_ELEMENT_THEORY = SGP/SGP4

EPOCH          = 2026-03-23T15:24:47.793312
MEAN_MOTION    = 14.39879174
ECCENTRICITY   = .00107291
INCLINATION    = 98.3054
RA_OF_ASC_NODE = 142.8860
ARG_OF_PERICENTER = 156.9834
MEAN_ANOMALY   = 203.1838

EPHEMERIS_TYPE = 0
CLASSIFICATION_TYPE = U
NORAD_CAT_ID   = 20443
ELEMENT_SET_NO = 999
REV_AT_EPOCH   = 89481
BSTAR          = .95184418E-4
MEAN_MOTION_DOT = .257E-5
MEAN_MOTION_DDOT = 0

CCSDS_OMM_VERS = 2.0
CREATION_DATE  = 
ORIGINATOR     = 

OBJECT_NAME    = DELTA 2 R/B(1)
OBJECT_ID      = 1990-008B
CENTER_NAME    = EARTH
REF_FRAME      = TEME
TIME_SYSTEM    = UTC
MEAN_ELEMENT_THEORY = SGP/SGP4

EPOCH          = 2026-03-23T06:57:55.734624
MEAN_MOTION    = 15.57716328
ECCENTRICITY   = .00799445
INCLINATION    = 35.6034
RA_OF_ASC_NODE = 85.4758
ARG_OF_PERICENTER = 25.1791
MEAN_ANOMALY   = 335.2813

EPHEMERIS_TYPE = 0
CLASSIFICATION_TYPE = U
NORAD_CAT_ID   = 20453
ELEMENT_SET_NO = 999
REV_AT_EPOCH   = 92825
BSTAR          = .82028965E-3
MEAN_MOTION_DOT = .73697E-3
MEAN_MOTION_DDOT = 0

