SL-3 R/B                
1 19046U 88032B   26082.95227326  .00005467  00000+0  25443-3 0  9997
2 19046  97.5215  66.1563 0025803 180.0863 180.0372 15.20063867 54279
SL-16 R/B               
1 19120U 88039B   26082.93190166 -.00000035  00000+0  61634-5 0  9997
2 19120  71.0158  38.4305 0023443 313.8372  46.0815 14.19617797960408
COSMOS 1953             
1 19210U 88050A   26082.43764595  .00008587  00000+0  30551-3 0  9999
2 19210  82.5082 144.4192 0012549  79.6553 280.6101 15.28741216 39884
SL-8 R/B                
1 19257U 88053B   26082.79159976  .00000310  00000+0  10898-3 0  9991
2 19257  74.0451  86.4697 0021525 263.9200 269.0847 14.38925154978624
COSMOS 1975             
1 19573U 88093A   26082.80303608  .00006877  00000+0  24806-3 0  9999
2 19573  82.5166 103.5126 0013237 117.7140 242.5444 15.28253912 21567
SL-14 R/B               
1 19574U 88093B   26082.94227635  .00000591  00000+0  65183-4 0  9991
2 19574  82.5332  28.6656 0020550 355.5751  73.5033 14.85673016  3136
SL-16 R/B               
1 19650U 88102B   26082.81997633 -.00000233  00000+0 -93273-4 0  9991
2 19650  70.9982 121.7664 0014917 339.9057  20.1477 14.16155049928896
INTERCOSMOS 24          
1 20261U 89080A   26082.78241751  .00000515  00000+0  15282-3 0  9990
2 20261  82.6014  95.2244 1186755 260.0777  86.4628 12.59576317668574
SL-14 R/B               
1 20262U 89080C   26082.47915673  .00000453  00000+0  12872-3 0  9991
2 20262  82.5965 164.3378 1230854 153.2452 213.7959 12.50507556661876
DELTA 1 R/B             
1 20323U 89089B   26082.55390026  .00000320  00000+0  87602-4 0  9993
2 20323  97.0695 287.7863 0070678  79.0434 281.8705 14.50674138897749
ARIANE 40 R/B           
1 20443U 90005H   26082.64221983  .00000257  00000+0  95184-4 0  9994
2 20443  98.3054 142.8860 0010729 156.9834 203.1838 14.39879174894816
DELTA 2 R/B(1)          
1 20453U 90008B   26082.29022841  .00073697  00000+0  82029-3 0  9992
2 20453  35.6034  85.4758 0079944  25.1791 335.2813 15.57716328928258
